[{"OBJECT_NAME":"SKYSAT-C10","OBJECT_ID":"2017-068B","EPOCH":"2026-03-09T22:15:51.699744","MEAN_MOTION":15.3268588,"ECCENTRICITY":0.00010197,"INCLINATION":97.4337,"RA_OF_ASC_NODE":205.0399,"ARG_OF_PERICENTER":91.4285,"MEAN_ANOMALY":268.7074,"EPHEMERIS_TYPE":0,"CLASSIFICATION_TYPE":"U","NORAD_CAT_ID":42988,"ELEMENT_SET_NO":999,"REV_AT_EPOCH":46714,"BSTAR":0.00040981809,"MEAN_MOTION_DOT":0.00012865,"MEAN_MOTION_DDOT":0},{"OBJECT_NAME":"STARLINK-36315","OBJECT_ID":"2026-026L","EPOCH":"2026-03-09T22:00:01.999584","MEAN_MOTION":15.48146499,"ECCENTRICITY":0.0001862,"INCLINATION":97.2849,"RA_OF_ASC_NODE":123.4838,"ARG_OF_PERICENTER":92.9236,"MEAN_ANOMALY":83.2277,"EPHEMERIS_TYPE":0,"CLASSIFICATION_TYPE":"U","NORAD_CAT_ID":67731,"ELEMENT_SET_NO":999,"REV_AT_EPOCH":535,"BSTAR":-0.044727238,"MEAN_MOTION_DOT":-0.02085772,"MEAN_MOTION_DDOT":0}]
